[{"OBJECT_NAME":"STARLINK-30960","OBJECT_ID":"2023-183V","EPOCH":"2026-03-09T22:00:01.999584","MEAN_MOTION":15.71845093,"ECCENTRICITY":0.00290225,"INCLINATION":42.9869,"RA_OF_ASC_NODE":306.2273,"ARG_OF_PERICENTER":250.1506,"MEAN_ANOMALY":28.4078,"EPHEMERIS_TYPE":0,"CLASSIFICATION_TYPE":"U","NORAD_CAT_ID":58456,"ELEMENT_SET_NO":999,"REV_AT_EPOCH":592,"BSTAR":0.0060496308,"MEAN_MOTION_DOT":0.00921154,"MEAN_MOTION_DDOT":0},{"OBJECT_NAME":"STARLINK-35934","OBJECT_ID":"2026-014L","EPOCH":"2026-03-09T16:09:01.841472","MEAN_MOTION":15.75208634,"ECCENTRICITY":0.00016833,"INCLINATION":97.2843,"RA_OF_ASC_NODE":313.6495,"ARG_OF_PERICENTER":34.4185,"MEAN_ANOMALY":325.7189,"EPHEMERIS_TYPE":0,"CLASSIFICATION_TYPE":"U","NORAD_CAT_ID":67542,"ELEMENT_SET_NO":999,"REV_AT_EPOCH":856,"BSTAR":0.0011325647,"MEAN_MOTION_DOT":0.00172393,"MEAN_MOTION_DDOT":0}]
